ONEWEB-0256             
1 48974U 21060H   23314.33498681  .00000010  00000+0 -65056-5 0  9994
2 48974  87.9080  57.8354 0001813  97.8254 262.3083 13.16594674115935
ONEWEB-0257             
1 48975U 21060J   23314.06477513  .00000039  00000+0  68818-4 0  9994
2 48975  87.9087  57.8616 0001639  92.7944 267.3374 13.16594168115857
ONEWEB-0258             
1 48976U 21060K   23314.52287278  .00000375  00000+0  94677-3 0  9997
2 48976  87.9087  57.7995 0001609 101.5041 258.6270 13.16593073115910
ONEWEB-0259             
1 48977U 21060L   23314.51652193  .00000191  00000+0  46548-3 0  9999
2 48977  87.9088  57.7858 0001378 109.5671 250.5609 13.16594881115959
ONEWEB-0260             
1 48978U 21060M   23313.82622650  .00000127  00000+0  29887-3 0  9994
2 48978  87.9085  57.9536 0002055  80.0863 280.0499 13.16594257114558
ONEWEB-0261             
1 48979U 21060N   23314.32442215  .00000010  00000+0 -85931-5 0  9994
2 48979  87.9081  57.8455 0001192  86.3655 273.7612 13.16595470115974
ONEWEB-0262             
1 48980U 21060P   23314.00144702  .00000051  00000+0  99092-4 0  9997
2 48980  87.9086  57.8749 0001155 111.7440 248.3814 13.16597015115891
ONEWEB-0263             
1 48981U 21060Q   23314.33708742  .00000051  00000+0  98569-4 0  9992
2 48981  87.9080  57.8222 0001139  97.4419 262.6842 13.16594010115904
